[{"OBJECT_NAME":"STARLINK-31358","OBJECT_ID":"2024-031N","EPOCH":"2026-03-09T20:41:18.660192","MEAN_MOTION":15.30215488,"ECCENTRICITY":0.00011369,"INCLINATION":53.1603,"RA_OF_ASC_NODE":295.5891,"ARG_OF_PERICENTER":106.8746,"MEAN_ANOMALY":253.2379,"EPHEMERIS_TYPE":0,"CLASSIFICATION_TYPE":"U","NORAD_CAT_ID":58977,"ELEMENT_SET_NO":999,"REV_AT_EPOCH":11654,"BSTAR":0.00025656973,"MEAN_MOTION_DOT":7.251e-5,"MEAN_MOTION_DDOT":0},{"OBJECT_NAME":"OBJECT BC","OBJECT_ID":"2025-313BC","EPOCH":"2026-03-09T04:33:08.504064","MEAN_MOTION":15.29126358,"ECCENTRICITY":0.00084789,"INCLINATION":97.3985,"RA_OF_ASC_NODE":144.811,"ARG_OF_PERICENTER":328.9209,"MEAN_ANOMALY":31.1528,"EPHEMERIS_TYPE":0,"CLASSIFICATION_TYPE":"U","NORAD_CAT_ID":67298,"ELEMENT_SET_NO":999,"REV_AT_EPOCH":789,"BSTAR":0.0026410397,"MEAN_MOTION_DOT":0.00075331,"MEAN_MOTION_DDOT":0}]
